NORAD_CAT_ID,OBJECT_NAME,OBJECT_TYPE,EPOCH,MEAN_MOTION,ECCENTRICITY,INCLINATION,RA_OF_ASC_NODE,ARG_OF_PERICENTER,MEAN_ANOMALY,BSTAR,MEAN_MOTION_DOT,MEAN_MOTION_DDOT,TLE_LINE0,TLE_LINE1,TLE_LINE2,SEMIMAJOR_AXIS,PERIOD,APOGEE,PERIGEE,DECAYED
56818.0,STARLINK-6028,PAYLOAD,2024-01-02 21:40:18,14.98329009,0.0002071,69.9992,193.2584,267.3175,92.7747,-2.0806e-05,-3.41e-06,0.0,0 STARLINK-6028,1 56818U 23078BD  24002.90299414 -.00000341  00000-0 -20806-4 0  9994,2 56818  69.9992 193.2584 0002071 267.3175  92.7747 14.98329009 34027,6950.196,96.107,573.5,570.622,0.0
56818.0,STARLINK-6028,PAYLOAD,2024-01-03 13:41:39,14.98327715,0.0002034,69.9992,191.5753,266.6798,93.4129,2.5623e-05,2.13e-06,0.0,0 STARLINK-6028,1 56818U 23078BD  24003.57059392  .00000213  00000-0  25623-4 0  9995,2 56818  69.9992 191.5753 0002034 266.6798  93.4129 14.98327715 34123,6950.2,96.107,573.479,570.651,0.0
56818.0,STARLINK-6028,PAYLOAD,2024-01-03 20:06:11,14.98329236,0.0002,69.9993,190.9021,266.3318,93.7612,4.3992e-05,4.32e-06,0.0,0 STARLINK-6028,1 56818U 23078BD  24003.83763277  .00000432  00000-0  43992-4 0  9990,2 56818  69.9993 190.9021 0002000 266.3318  93.7612 14.98329236 33739,6950.195,96.107,573.45,570.67,0.0
56818.0,STARLINK-6028,PAYLOAD,2024-01-03 21:42:19,14.98329165,0.0002005,69.9993,190.7338,266.8878,93.2051,4.2118e-05,4.1e-06,0.0,0 STARLINK-6028,1 56818U 23078BD  24003.90439296  .00000410  00000-0  42118-4 0  9994,2 56818  69.9993 190.7338 0002005 266.8878  93.2051 14.98329165 34171,6950.195,96.107,573.454,570.667,0.0
56818.0,STARLINK-6028,PAYLOAD,2024-01-04 12:07:33,14.9831363,0.0001638,70.0006,189.2207,239.7307,120.369,-8.2269e-05,-1.074e-05,0.0,0 STARLINK-6028,1 56818U 23078BD  24004.50524943 -.00001074  00000-0 -82269-4 0  9995,2 56818  70.0006 189.2207 0001638 239.7307 120.3690 14.98313630 33837,6950.244,96.108,573.247,570.97,0.0
56818.0,STARLINK-6028,PAYLOAD,2024-01-04 13:43:41,14.98312936,0.000167,70.0005,189.0523,239.4761,120.6233,-9.2634e-05,-1.197e-05,0.0,0 STARLINK-6028,1 56818U 23078BD  24004.57201070 -.00001197  00000-0 -92634-4 0  9998,2 56818  70.0005 189.0523 0001670 239.4761 120.6233 14.98312936 34275,6950.246,96.108,573.271,570.95,0.0
56818.0,STARLINK-6028,PAYLOAD,2024-01-04 21:44:22,14.98309206,0.00017,70.0004,188.2104,245.4083,114.6899,-0.00013125,-1.658e-05,0.0,0 STARLINK-6028,1 56818U 23078BD  24004.90581796 -.00001658  00000-0 -13125-3 0  9990,2 56818  70.0004 188.2104 0001700 245.4083 114.6899 14.98309206 34321,6950.257,96.108,573.304,570.941,0.0
56818.0,STARLINK-6028,PAYLOAD,2024-01-05 12:09:34,14.98328139,0.0001831,69.9999,186.6941,256.2046,103.8909,1.5843e-05,9.6e-07,0.0,0 STARLINK-6028,1 56818U 23078BD  24005.50664593  .00000096  00000-0  15843-4 0  9997,2 56818  69.9999 186.6941 0001831 256.2046 103.8909 14.98328139 33985,6950.199,96.107,573.336,570.791,0.0
56818.0,STARLINK-6028,PAYLOAD,2024-01-05 13:45:42,14.98327684,0.0001828,69.9999,186.5258,256.4866,103.6089,1.1965e-05,5e-07,0.0,0 STARLINK-6028,1 56818U 23078BD  24005.57340649  .00000050  00000-0  11965-4 0  9998,2 56818  69.9999 186.5258 0001828 256.4866 103.6089 14.98327684 34424,6950.2,96.107,573.336,570.795,0.0
56818.0,STARLINK-6028,PAYLOAD,2024-01-05 21:46:22,14.98327509,0.0001836,69.9999,185.6841,258.5728,101.5225,1.4389e-05,7.9e-07,0.0,0 STARLINK-6028,1 56818U 23078BD  24005.90720751  .00000079  00000-0  14389-4 0  9995,2 56818  69.9999 185.6841 0001836 258.5728 101.5225 14.98327509 34471,6950.201,96.107,573.342,570.79,0.0
56818.0,STARLINK-6028,PAYLOAD,2024-01-06 12:11:35,14.98323555,0.0002242,69.999,184.1686,271.5599,88.5303,0.00016705,1.9e-05,0.0,0 STARLINK-6028,1 56818U 23078BD  24006.50804742  .00001900  00000-0  16705-3 0  9992,2 56818  69.9990 184.1686 0002242 271.5599  88.5303 14.98323555 34137,6950.213,96.107,573.636,570.52,0.0
56818.0,STARLINK-6028,PAYLOAD,2024-01-06 21:48:23,14.98328263,0.0002156,69.9992,183.1587,269.5605,90.5307,0.00020042,2.299e-05,0.0,0 STARLINK-6028,1 56818U 23078BD  24006.90860447  .00002299  00000-0  20042-3 0  9991,2 56818  69.9992 183.1587 0002156 269.5605  90.5307 14.98328263 34629,6950.198,96.107,573.562,570.565,0.0
56818.0,STARLINK-6028,PAYLOAD,2024-01-07 12:13:35,14.98338874,0.0002082,69.9994,181.6439,267.9011,92.1909,7.4712e-05,7.99e-06,0.0,0 STARLINK-6028,1 56818U 23078BD  24007.50944015  .00000799  00000-0  74712-4 0  9999,2 56818  69.9994 181.6439 0002082 267.9011  92.1909 14.98338874 34288,6950.165,96.106,573.477,570.583,0.0
56818.0,STARLINK-6028,PAYLOAD,2024-01-07 13:49:43,14.9833908,0.0002078,69.9994,181.4756,268.1667,91.9254,7.6326e-05,8.18e-06,0.0,0 STARLINK-6028,1 56818U 23078BD  24007.57619962  .00000818  00000-0  76326-4 0  9991,2 56818  69.9994 181.4756 0002078 268.1667  91.9254 14.98339080 34722,6950.165,96.106,573.474,570.586,0.0
56818.0,STARLINK-6028,PAYLOAD,2024-01-07 21:50:23,14.98341034,0.0002044,69.9997,180.6342,268.8924,91.2001,9.2032e-05,1.006e-05,0.0,0 STARLINK-6028,1 56818U 23078BD  24007.90999577  .00001006  00000-0  92032-4 0  9993,2 56818  69.9997 180.6342 0002044 268.8924  91.2001 14.98341034 34773,6950.159,96.106,573.444,570.603,0.0
56818.0,STARLINK-6028,PAYLOAD,2024-01-08 12:15:35,14.98342712,0.000199,69.9999,179.1196,268.2401,91.853,6.1378e-05,6.4e-06,0.0,0 STARLINK-6028,1 56818U 23078BD  24008.51083062  .00000640  00000-0  61378-4 0  9996,2 56818  69.9999 179.1196 0001990 268.2401  91.8530 14.98342712 34438,6950.154,96.106,573.402,570.635,0.0
56818.0,STARLINK-6028,PAYLOAD,2024-01-08 13:51:43,14.9834265,0.0001994,69.9999,178.9514,268.8216,91.2715,5.9743e-05,6.2e-06,0.0,0 STARLINK-6028,1 56818U 23078BD  24008.57759015  .00000620  00000-0  59743-4 0  9991,2 56818  69.9999 178.9514 0001994 268.8216  91.2715 14.98342650 34871,6950.154,96.106,573.405,570.633,0.0
56818.0,STARLINK-6028,PAYLOAD,2024-01-08 20:16:15,14.98342849,0.0001983,70.0,178.2782,270.0288,90.0644,5.8518e-05,6.06e-06,0.0,0 STARLINK-6028,1 56818U 23078BD  24008.84462777  .00000606  00000-0  58518-4 0  9990,2 56818  70.0000 178.2782 0001983 270.0288  90.0644 14.98342849 34912,6950.153,96.106,573.396,570.64,0.0
56818.0,STARLINK-6028,PAYLOAD,2024-01-09 12:17:36,14.98337562,0.000185,70.0005,176.5958,265.9147,94.18,-5.788e-05,-7.83e-06,0.0,0 STARLINK-6028,1 56818U 23078BD  24009.51222929 -.00000783  00000-0 -57880-4 0  9997,2 56818  70.0005 176.5958 0001850 265.9147  94.1800 14.98337562 34581,6950.17,96.107,573.32,570.749,0.0
56818.0,STARLINK-6028,PAYLOAD,2024-01-09 13:53:44,14.98336835,0.0001876,70.0004,176.4276,264.265,95.8295,-6.8091e-05,-9.05e-06,0.0,0 STARLINK-6028,1 56818U 23078BD  24009.57898959 -.00000905  00000-0 -68091-4 0  9997,2 56818  70.0004 176.4276 0001876 264.2650  95.8295 14.98336835 35029,6950.172,96.107,573.341,570.733,0.0
56818.0,STARLINK-6028,PAYLOAD,2024-01-09 21:54:22,14.98355889,0.0003128,70.0005,175.5861,233.2847,126.8025,0.00013478,1.517e-05,0.0,0 STARLINK-6028,1 56818U 23078BD  24009.91276578  .00001517  00000-0  13478-3 0  9998,2 56818  70.0005 175.5861 0003128 233.2847 126.8025 14.98355889 35077,6950.113,96.105,574.152,569.804,0.0
56818.0,STARLINK-6028,PAYLOAD,2024-01-10 10:43:26,14.98364674,0.0001761,70.0011,174.2396,244.6982,115.3995,0.00023722,2.741e-05,0.0,0 STARLINK-6028,1 56818U 23078BD  24010.44683073  .00002741  00000-0  23722-3 0  9993,2 56818  70.0011 174.2396 0001761 244.6982 115.3995 14.98364674 34722,6950.086,96.105,573.175,570.727,0.0
56818.0,STARLINK-6028,PAYLOAD,2024-01-10 18:44:09,14.98325898,0.0001961,70.0009,173.3986,258.9121,101.1818,-0.00020131,-2.494e-05,0.0,0 STARLINK-6028,1 56818U 23078BD  24010.78066361 -.00002494  00000-0 -20131-3 0  9993,2 56818  70.0009 173.3986 0001961 258.9121 101.1818 14.98325898 34776,6950.206,96.107,573.434,570.708,0.0
56818.0,STARLINK-6028,PAYLOAD,2024-01-11 13:57:46,14.98315459,0.0001994,70.0009,171.3795,258.0798,102.0137,-0.00017259,-2.151e-05,0.0,0 STARLINK-6028,1 56818U 23078BD  24011.58179218 -.00002151  00000-0 -17259-3 0  9995,2 56818  70.0009 171.3795 0001994 258.0798 102.0137 14.98315459 35327,6950.238,96.108,573.489,570.717,0.0
56818.0,STARLINK-6028,PAYLOAD,2024-01-11 20:22:19,14.98313681,0.0001963,70.0009,170.706,258.4916,101.6023,-0.00016426,-2.051e-05,0.0,0 STARLINK-6028,1 56818U 23078BD  24011.84883538 -.00002051  00000-0 -16426-3 0  9995,2 56818  70.0009 170.7060 0001963 258.4916 101.6023 14.98313681 34937,6950.243,96.108,573.473,570.744,0.0
56818.0,STARLINK-6028,PAYLOAD,2024-01-12 12:23:39,14.98316052,0.0002319,70.0,169.0211,268.9611,91.1282,7.7755e-05,8.35e-06,0.0,0 STARLINK-6028,1 56818U 23078BD  24012.51642684  .00000835  00000-0  77755-4 0  9994,2 56818  70.0000 169.0211 0002319 268.9611  91.1282 14.98316052 35038,6950.236,96.108,573.713,570.489,0.0
56818.0,STARLINK-6028,PAYLOAD,2024-01-12 13:59:47,14.98315096,0.000248,69.9998,168.8528,273.4992,86.5883,7.8817e-05,8.47e-06,0.0,0 STARLINK-6028,1 56818U 23078BD  24012.58318831  .00000847  00000-0  78817-4 0  9998,2 56818  69.9998 168.8528 0002480 273.4992  86.5883 14.98315096 35471,6950.239,96.108,573.828,570.38,0.0
56818.0,STARLINK-6028,PAYLOAD,2024-01-12 20:24:19,14.98320086,0.0002261,70.0002,168.1795,268.1871,91.9029,0.00012195,1.362e-05,0.0,0 STARLINK-6028,1 56818U 23078BD  24012.85022616  .00001362  00000-0  12195-3 0  9990,2 56818  70.0002 168.1795 0002261 268.1871  91.9029 14.98320086 35515,6950.224,96.108,573.66,570.517,0.0
56818.0,STARLINK-6028,PAYLOAD,2024-01-13 12:25:39,14.98326997,0.0002554,69.9994,166.4959,272.9303,87.1563,0.00021564,2.481e-05,0.0,0 STARLINK-6028,1 56818U 23078BD  24013.51782249  .00002481  00000-0  21564-3 0  9992,2 56818  69.9994 166.4959 0002554 272.9303  87.1563 14.98326997 35183,6950.202,96.107,573.842,570.292,0.0
56818.0,STARLINK-6028,PAYLOAD,2024-01-13 14:01:47,14.98327936,0.0002538,69.9995,166.3275,273.9422,86.1447,0.00022522,2.595e-05,0.0,0 STARLINK-6028,1 56818U 23078BD  24013.58458201  .00002595  00000-0  22522-3 0  9998,2 56818  69.9995 166.3275 0002538 273.9422  86.1447 14.98327936 35622,6950.199,96.107,573.828,570.3,0.0
